{
  "type": "FeatureCollection",
  "features": [
    {
      "type": "Feature",
      "properties": {},
      "geometry": {
        "type": "LineString",
        "coordinates": [
          [
            -122.024028,
            37.320471,
            63.5
          ],
          [
            -122.023328,
            37.320066,
            63.75
          ],
          [
            -122.022932,
            37.319980,
            63.5
          ],
          [
            -122.022045,
            37.319247,
            63.0
          ],
          [
            -122.022005,
            37.318755,
            63.25
          ],
          [
            -122.021579,
            37.319049,
            62.75
          ],
          [
            -122.020839,
            37.319093,
            61.0
          ],
          [
            -122.020098,
            37.318861,
            60.75
          ],
          [
            -122.020314,
            37.318507,
            61.5
          ],
          [
            -122.020607,
            37.318215,
            62.25
          ],
          [
            -122.016860,
            37.317720,
            63.25
          ],
          [
            -122.015486,
            37.317203,
            63.0
          ],
          [
            -122.015660,
            37.316797,
            63.0
          ],
          [
            -122.015646,
            37.316872,
            63.0
          ],
          [
            -122.015481,
            37.317546,
            62.75
          ],
          [
            -122.016901,
            37.317727,
            63.5
          ],
          [
            -122.016018,
            37.320090,
            60.75
          ],
          [
            -122.015376,
            37.321687,
            59.75
          ],
          [
            -122.015135,
            37.322403,
            59.25
          ],
          [
            -122.015138,
            37.322884,
            59.0
          ],
          [
            -122.014301,
            37.322888,
            58.75
          ],
          [
            -122.012822,
            37.322899,
            58.0
          ],
          [
            -122.010662,
            37.322906,
            55.0
          ],
          [
            -122.009409,
            37.322916,
            55.5
          ],
          [
            -122.007739,
            37.322961,
            56.0
          ],
          [
            -122.006516,
            37.322967,
            54.0
          ],
          [
            -122.006503,
            37.323875,
            54.5
          ],
          [
            -122.006503,
            37.324473,
            54.75
          ],
          [
            -122.006501,
            37.325478,
            53.75
          ],
          [
            -122.006366,
            37.326067,
            52.75
          ],
          [
            -122.005911,
            37.327228,
            52.5
          ],
          [
            -122.005895,
            37.328904,
            50.25
          ],
          [
            -122.005865,
            37.330249,
            49.5
          ],
          [
            -122.005843,
            37.331720,
            50.75
          ],
          [
            -122.005836,
            37.332393,
            50.75
          ],
          [
            -122.005696,
            37.333328,
            48.25
          ],
          [
            -122.005140,
            37.333256,
            49.5
          ],
          [
            -122.005153,
            37.332498,
            49.25
          ],
          [
            -122.004919,
            37.332280,
            48.5
          ],
          [
            -122.005834,
            37.332282,
            50.75
          ],
          [
            -122.005940,
            37.331368,
            51.0
          ],
          [
            -122.005862,
            37.330379,
            49.75
          ],
          [
            -122.005894,
            37.328963,
            50.0
          ],
          [
            -122.005911,
            37.327228,
            52.5
          ],
          [
            -122.006366,
            37.326067,
            52.75
          ],
          [
            -122.006501,
            37.325478,
            53.75
          ],
          [
            -122.006503,
            37.324473,
            54.75
          ],
          [
            -122.006503,
            37.323875,
            54.5
          ],
          [
            -122.006641,
            37.323103,
            54.0
          ],
          [
            -122.008659,
            37.323059,
            55.75
          ],
          [
            -122.010463,
            37.323044,
            54.5
          ],
          [
            -122.011672,
            37.323038,
            55.5
          ],
          [
            -122.014304,
            37.323037,
            59.0
          ],
          [
            -122.016759,
            37.323021,
            58.75
          ],
          [
            -122.017503,
            37.323028,
            59.25
          ],
          [
            -122.019621,
            37.323106,
            59.75
          ],
          [
            -122.019635,
            37.324137,
            58.5
          ],
          [
            -122.019588,
            37.324429,
            58.0
          ],
          [
            -122.019635,
            37.324545,
            58.0
          ],
          [
            -122.019793,
            37.325799,
            59.0
          ],
          [
            -122.020420,
            37.325963,
            61.25
          ],
          [
            -122.020420,
            37.325963,
            61.25
          ],
          [
            -122.019793,
            37.325799,
            59.0
          ],
          [
            -122.019635,
            37.324545,
            58.0
          ],
          [
            -122.019702,
            37.324448,
            58.25
          ],
          [
            -122.019635,
            37.324137,
            58.5
          ],
          [
            -122.019621,
            37.323106,
            59.75
          ],
          [
            -122.019599,
            37.321972,
            61.75
          ],
          [
            -122.019603,
            37.321475,
            61.75
          ],
          [
            -122.019857,
            37.320665,
            60.75
          ],
          [
            -122.023110,
            37.320678,
            63.0
          ],
          [
            -122.023222,
            37.320064,
            63.75
          ],
          [
            -122.024315,
            37.320272,
            63.25
          ],
          [
            -122.024028,
            37.320471,
            63.5
          ]
        ]
      }
    }
  ]
}
