{
  "type": "FeatureCollection",
  "features": [
    {
      "type": "Feature",
      "properties": {},
      "geometry": {
        "type": "LineString",
        "coordinates": [
          [
            -122.024028,
            37.320471,
            63.5
          ],
          [
            -122.025544,
            37.320064,
            65.25
          ],
          [
            -122.026420,
            37.319914,
            65.25
          ],
          [
            -122.027295,
            37.319500,
            66.75
          ],
          [
            -122.029157,
            37.319332,
            70.25
          ],
          [
            -122.029723,
            37.319317,
            71.75
          ],
          [
            -122.032096,
            37.319317,
            71.5
          ],
          [
            -122.032396,
            37.318560,
            72.25
          ],
          [
            -122.032391,
            37.317460,
            74.75
          ],
          [
            -122.032515,
            37.315789,
            74.75
          ],
          [
            -122.032923,
            37.315606,
            74.75
          ],
          [
            -122.034019,
            37.315617,
            76.5
          ],
          [
            -122.037035,
            37.315608,
            79.75
          ],
          [
            -122.037974,
            37.315605,
            81.5
          ],
          [
            -122.039218,
            37.315593,
            84.25
          ],
          [
            -122.040820,
            37.315600,
            86.25
          ],
          [
            -122.041537,
            37.315601,
            88.0
          ],
          [
            -122.043148,
            37.315597,
            90.5
          ],
          [
            -122.045389,
            37.315580,
            93.0
          ],
          [
            -122.047685,
            37.315582,
            97.25
          ],
          [
            -122.049512,
            37.315573,
            99.75
          ],
          [
            -122.050478,
            37.315571,
            101.5
          ],
          [
            -122.054459,
            37.315548,
            108.0
          ],
          [
            -122.056358,
            37.315545,
            111.25
          ],
          [
            -122.057820,
            37.315545,
            112.5
          ],
          [
            -122.059071,
            37.315425,
            112.0
          ],
          [
            -122.059113,
            37.314436,
            113.5
          ],
          [
            -122.060597,
            37.313670,
            112.5
          ],
          [
            -122.062326,
            37.313115,
            108.0
          ],
          [
            -122.063696,
            37.312784,
            106.25
          ],
          [
            -122.063825,
            37.312952,
            105.25
          ],
          [
            -122.063615,
            37.313347,
            102.75
          ],
          [
            -122.063508,
            37.313752,
            101.0
          ],
          [
            -122.063287,
            37.314020,
            98.75
          ],
          [
            -122.063536,
            37.313493,
            102.25
          ],
          [
            -122.063216,
            37.313445,
            102.5
          ],
          [
            -122.062777,
            37.313365,
            104.0
          ],
          [
            -122.061962,
            37.313513,
            106.25
          ],
          [
            -122.061401,
            37.314029,
            104.75
          ],
          [
            -122.060825,
            37.314836,
            103.25
          ],
          [
            -122.060792,
            37.315486,
            102.25
          ],
          [
            -122.060759,
            37.315680,
            102.5
          ],
          [
            -122.060983,
            37.315841,
            101.25
          ],
          [
            -122.060929,
            37.316368,
            102.25
          ],
          [
            -122.060951,
            37.316726,
            102.25
          ],
          [
            -122.062212,
            37.317720,
            98.5
          ],
          [
            -122.061538,
            37.317413,
            96.25
          ],
          [
            -122.060911,
            37.316438,
            102.25
          ],
          [
            -122.060935,
            37.315977,
            101.75
          ],
          [
            -122.060914,
            37.315723,
            101.75
          ],
          [
            -122.060696,
            37.315546,
            102.75
          ],
          [
            -122.060817,
            37.315118,
            102.0
          ],
          [
            -122.061224,
            37.314324,
            104.5
          ],
          [
            -122.061742,
            37.313618,
            106.5
          ],
          [
            -122.062692,
            37.313337,
            104.5
          ],
          [
            -122.063016,
            37.313535,
            102.25
          ],
          [
            -122.063832,
            37.313299,
            103.0
          ],
          [
            -122.063809,
            37.312947,
            105.25
          ],
          [
            -122.063400,
            37.312746,
            106.5
          ],
          [
            -122.063752,
            37.312688,
            106.75
          ],
          [
            -122.062760,
            37.311648,
            112.0
          ],
          [
            -122.061704,
            37.311098,
            115.0
          ],
          [
            -122.062760,
            37.311648,
            112.0
          ],
          [
            -122.063752,
            37.312688,
            106.75
          ],
          [
            -122.063400,
            37.312746,
            106.5
          ],
          [
            -122.063769,
            37.312938,
            105.25
          ],
          [
            -122.063921,
            37.313279,
            103.25
          ],
          [
            -122.063536,
            37.313493,
            102.25
          ],
          [
            -122.063287,
            37.314020,
            98.75
          ],
          [
            -122.063508,
            37.313752,
            101.0
          ],
          [
            -122.063615,
            37.313347,
            102.75
          ],
          [
            -122.063825,
            37.312952,
            105.25
          ],
          [
            -122.063569,
            37.312756,
            106.25
          ],
          [
            -122.061872,
            37.313235,
            109.5
          ],
          [
            -122.059748,
            37.314003,
            113.25
          ],
          [
            -122.059082,
            37.314644,
            113.25
          ],
          [
            -122.059002,
            37.315509,
            112.0
          ],
          [
            -122.057740,
            37.315545,
            112.5
          ],
          [
            -122.055549,
            37.315546,
            109.25
          ],
          [
            -122.053337,
            37.315556,
            106.25
          ],
          [
            -122.050298,
            37.315525,
            101.0
          ],
          [
            -122.049512,
            37.315573,
            99.75
          ],
          [
            -122.047685,
            37.315582,
            97.25
          ],
          [
            -122.045389,
            37.315580,
            93.0
          ],
          [
            -122.043148,
            37.315597,
            90.5
          ],
          [
            -122.041537,
            37.315601,
            88.0
          ],
          [
            -122.040820,
            37.315600,
            86.25
          ],
          [
            -122.039218,
            37.315593,
            84.25
          ],
          [
            -122.037974,
            37.315605,
            81.5
          ],
          [
            -122.037035,
            37.315608,
            79.75
          ],
          [
            -122.034019,
            37.315617,
            76.5
          ],
          [
            -122.032923,
            37.315606,
            74.75
          ],
          [
            -122.032515,
            37.315789,
            74.75
          ],
          [
            -122.032203,
            37.316382,
            73.75
          ],
          [
            -122.032210,
            37.318397,
            72.5
          ],
          [
            -122.032096,
            37.319317,
            71.5
          ],
          [
            -122.029723,
            37.319317,
            71.75
          ],
          [
            -122.029157,
            37.319332,
            70.25
          ],
          [
            -122.027295,
            37.319500,
            66.75
          ],
          [
            -122.026420,
            37.319914,
            65.25
          ],
          [
            -122.025544,
            37.320064,
            65.25
          ],
          [
            -122.024028,
            37.320471,
            63.5
          ],
          [
            -122.024028,
            37.320471,
            63.5
          ]
        ]
      }
    }
  ]
}
