{
  "type": "FeatureCollection",
  "features": [
    {
      "type": "Feature",
      "properties": {},
      "geometry": {
        "type": "LineString",
        "coordinates": [
          [
            -122.024028,
            37.320471,
            63.5
          ],
          [
            -122.025544,
            37.320064,
            65.25
          ],
          [
            -122.026420,
            37.319914,
            65.25
          ],
          [
            -122.027295,
            37.319500,
            66.75
          ],
          [
            -122.029157,
            37.319332,
            70.25
          ],
          [
            -122.029723,
            37.319317,
            71.75
          ],
          [
            -122.032096,
            37.319317,
            71.5
          ],
          [
            -122.032204,
            37.320579,
            74.5
          ],
          [
            -122.032188,
            37.322680,
            70.0
          ],
          [
            -122.032554,
            37.322983,
            71.25
          ],
          [
            -122.034424,
            37.322981,
            73.5
          ],
          [
            -122.036056,
            37.322976,
            74.5
          ],
          [
            -122.037191,
            37.322977,
            75.75
          ],
          [
            -122.038476,
            37.322972,
            78.0
          ],
          [
            -122.040633,
            37.322974,
            80.5
          ],
          [
            -122.041443,
            37.322974,
            80.75
          ],
          [
            -122.044213,
            37.322954,
            86.5
          ],
          [
            -122.044362,
            37.323029,
            86.75
          ],
          [
            -122.044217,
            37.324668,
            85.25
          ],
          [
            -122.044048,
            37.325190,
            84.0
          ],
          [
            -122.041704,
            37.325267,
            80.5
          ],
          [
            -122.041443,
            37.325189,
            80.25
          ],
          [
            -122.039140,
            37.325286,
            77.0
          ],
          [
            -122.038327,
            37.325239,
            77.25
          ],
          [
            -122.037740,
            37.325129,
            76.25
          ],
          [
            -122.036393,
            37.325131,
            75.0
          ],
          [
            -122.034542,
            37.325134,
            72.0
          ],
          [
            -122.034390,
            37.325815,
            72.25
          ],
          [
            -122.034099,
            37.326529,
            73.75
          ],
          [
            -122.032912,
            37.326536,
            74.5
          ],
          [
            -122.032217,
            37.326548,
            73.5
          ],
          [
            -122.031523,
            37.326582,
            70.5
          ],
          [
            -122.029205,
            37.326583,
            67.0
          ],
          [
            -122.027622,
            37.326556,
            67.25
          ],
          [
            -122.027896,
            37.326672,
            67.0
          ],
          [
            -122.027664,
            37.326726,
            67.25
          ],
          [
            -122.027749,
            37.326557,
            67.0
          ],
          [
            -122.029462,
            37.326579,
            67.75
          ],
          [
            -122.031739,
            37.326563,
            71.25
          ],
          [
            -122.032415,
            37.326541,
            74.25
          ],
          [
            -122.033012,
            37.326535,
            74.5
          ],
          [
            -122.034250,
            37.326529,
            73.5
          ],
          [
            -122.034335,
            37.327509,
            72.0
          ],
          [
            -122.034400,
            37.328713,
            72.25
          ],
          [
            -122.034416,
            37.329694,
            71.25
          ],
          [
            -122.034444,
            37.330604,
            70.25
          ],
          [
            -122.034729,
            37.331420,
            70.5
          ],
          [
            -122.034864,
            37.332341,
            72.75
          ],
          [
            -122.036076,
            37.332286,
            71.0
          ],
          [
            -122.036646,
            37.332006,
            70.5
          ],
          [
            -122.037021,
            37.331993,
            71.75
          ],
          [
            -122.038452,
            37.332056,
            72.75
          ],
          [
            -122.038532,
            37.332914,
            72.75
          ],
          [
            -122.040444,
            37.333005,
            73.0
          ],
          [
            -122.041455,
            37.333450,
            73.5
          ],
          [
            -122.041458,
            37.335509,
            70.5
          ],
          [
            -122.041456,
            37.336498,
            71.0
          ],
          [
            -122.041460,
            37.337544,
            69.25
          ],
          [
            -122.042298,
            37.337531,
            70.5
          ],
          [
            -122.043426,
            37.337530,
            72.0
          ],
          [
            -122.045150,
            37.337527,
            73.75
          ],
          [
            -122.046118,
            37.337525,
            73.5
          ],
          [
            -122.047572,
            37.337522,
            75.5
          ],
          [
            -122.048256,
            37.337318,
            74.25
          ],
          [
            -122.048291,
            37.337077,
            74.5
          ],
          [
            -122.048329,
            37.337038,
            74.5
          ],
          [
            -122.048256,
            37.337229,
            74.25
          ],
          [
            -122.048344,
            37.337515,
            73.75
          ],
          [
            -122.050165,
            37.337373,
            74.5
          ],
          [
            -122.050740,
            37.336043,
            75.75
          ],
          [
            -122.050621,
            37.335616,
            76.5
          ],
          [
            -122.050689,
            37.335077,
            77.75
          ],
          [
            -122.050695,
            37.334339,
            80.0
          ],
          [
            -122.050670,
            37.332738,
            81.25
          ],
          [
            -122.050599,
            37.332187,
            81.25
          ],
          [
            -122.050623,
            37.331578,
            82.25
          ],
          [
            -122.050560,
            37.331120,
            82.75
          ],
          [
            -122.050505,
            37.330219,
            85.75
          ],
          [
            -122.050493,
            37.328087,
            90.25
          ],
          [
            -122.050379,
            37.326942,
            92.0
          ],
          [
            -122.049429,
            37.324753,
            90.25
          ],
          [
            -122.048785,
            37.324329,
            90.5
          ],
          [
            -122.047376,
            37.324204,
            88.0
          ],
          [
            -122.046617,
            37.324050,
            88.25
          ],
          [
            -122.046262,
            37.323687,
            88.75
          ],
          [
            -122.046167,
            37.323037,
            89.5
          ],
          [
            -122.044802,
            37.323028,
            86.75
          ],
          [
            -122.045281,
            37.322952,
            88.75
          ],
          [
            -122.046182,
            37.322809,
            89.75
          ],
          [
            -122.043411,
            37.322813,
            85.25
          ],
          [
            -122.041725,
            37.322822,
            81.25
          ],
          [
            -122.040874,
            37.322822,
            81.0
          ],
          [
            -122.039011,
            37.322830,
            78.25
          ],
          [
            -122.037288,
            37.322836,
            75.75
          ],
          [
            -122.035135,
            37.322842,
            74.75
          ],
          [
            -122.033101,
            37.322819,
            71.75
          ],
          [
            -122.032405,
            37.322520,
            69.75
          ],
          [
            -122.032407,
            37.320638,
            74.25
          ],
          [
            -122.032397,
            37.319323,
            71.5
          ],
          [
            -122.031107,
            37.319317,
            71.5
          ],
          [
            -122.029282,
            37.319323,
            70.5
          ],
          [
            -122.027933,
            37.319374,
            68.5
          ],
          [
            -122.026681,
            37.319744,
            65.25
          ],
          [
            -122.025940,
            37.320054,
            65.75
          ],
          [
            -122.024315,
            37.320272,
            63.25
          ],
          [
            -122.024028,
            37.320471,
            63.5
          ]
        ]
      }
    }
  ]
}
