{
  "type": "FeatureCollection",
  "features": [
    {
      "type": "Feature",
      "properties": {},
      "geometry": {
        "type": "LineString",
        "coordinates": [
          [
            -122.024028,
            37.320471,
            63.5
          ],
          [
            -122.025544,
            37.320064,
            65.25
          ],
          [
            -122.026420,
            37.319914,
            65.25
          ],
          [
            -122.027295,
            37.319500,
            66.75
          ],
          [
            -122.029157,
            37.319332,
            70.25
          ],
          [
            -122.029283,
            37.318488,
            68.75
          ],
          [
            -122.029199,
            37.318162,
            68.5
          ],
          [
            -122.029013,
            37.317618,
            69.5
          ],
          [
            -122.029199,
            37.318162,
            68.5
          ],
          [
            -122.029283,
            37.318488,
            68.75
          ],
          [
            -122.029157,
            37.319332,
            70.25
          ],
          [
            -122.027295,
            37.319500,
            66.75
          ],
          [
            -122.026420,
            37.319914,
            65.25
          ],
          [
            -122.025544,
            37.320064,
            65.25
          ],
          [
            -122.023120,
            37.320052,
            63.5
          ],
          [
            -122.022048,
            37.319932,
            63.0
          ],
          [
            -122.022070,
            37.318788,
            63.0
          ],
          [
            -122.021932,
            37.319026,
            63.0
          ],
          [
            -122.021266,
            37.319097,
            62.0
          ],
          [
            -122.020363,
            37.319025,
            60.25
          ],
          [
            -122.020128,
            37.318659,
            61.25
          ],
          [
            -122.020582,
            37.318346,
            61.75
          ],
          [
            -122.016942,
            37.317734,
            63.5
          ],
          [
            -122.015510,
            37.317550,
            62.75
          ],
          [
            -122.015625,
            37.316920,
            62.75
          ],
          [
            -122.015658,
            37.316703,
            63.0
          ],
          [
            -122.015496,
            37.317146,
            63.0
          ],
          [
            -122.015450,
            37.317708,
            62.75
          ],
          [
            -122.014110,
            37.317717,
            63.5
          ],
          [
            -122.013708,
            37.317560,
            63.75
          ],
          [
            -122.013272,
            37.317401,
            63.75
          ],
          [
            -122.010572,
            37.317447,
            60.0
          ],
          [
            -122.009094,
            37.318196,
            56.0
          ],
          [
            -122.009006,
            37.319542,
            57.75
          ],
          [
            -122.008546,
            37.320097,
            57.0
          ],
          [
            -122.007954,
            37.320284,
            55.5
          ],
          [
            -122.007965,
            37.321910,
            56.25
          ],
          [
            -122.008923,
            37.321962,
            56.25
          ],
          [
            -122.009988,
            37.321968,
            56.0
          ],
          [
            -122.010495,
            37.321968,
            56.25
          ],
          [
            -122.010504,
            37.322493,
            56.0
          ],
          [
            -122.010517,
            37.322906,
            55.0
          ],
          [
            -122.010564,
            37.323044,
            54.5
          ],
          [
            -122.013442,
            37.323038,
            58.5
          ],
          [
            -122.014570,
            37.323036,
            59.0
          ],
          [
            -122.017195,
            37.323028,
            59.0
          ],
          [
            -122.018825,
            37.323020,
            59.75
          ],
          [
            -122.019599,
            37.322076,
            61.5
          ],
          [
            -122.019605,
            37.321535,
            61.75
          ],
          [
            -122.019779,
            37.320662,
            60.75
          ],
          [
            -122.021498,
            37.320688,
            61.75
          ],
          [
            -122.023218,
            37.320155,
            63.5
          ],
          [
            -122.025544,
            37.320064,
            65.25
          ],
          [
            -122.026420,
            37.319914,
            65.25
          ],
          [
            -122.027295,
            37.319500,
            66.75
          ],
          [
            -122.029157,
            37.319332,
            70.25
          ],
          [
            -122.029723,
            37.319317,
            71.75
          ],
          [
            -122.032096,
            37.319317,
            71.5
          ],
          [
            -122.032396,
            37.318560,
            72.25
          ],
          [
            -122.032391,
            37.317460,
            74.75
          ],
          [
            -122.032385,
            37.315650,
            74.75
          ],
          [
            -122.032528,
            37.314979,
            75.0
          ],
          [
            -122.032519,
            37.314891,
            75.0
          ],
          [
            -122.032686,
            37.315546,
            74.75
          ],
          [
            -122.032385,
            37.315884,
            74.75
          ],
          [
            -122.032203,
            37.316821,
            73.75
          ],
          [
            -122.032210,
            37.318627,
            72.0
          ],
          [
            -122.031465,
            37.319317,
            71.5
          ],
          [
            -122.029405,
            37.319317,
            70.75
          ],
          [
            -122.028328,
            37.319332,
            69.75
          ],
          [
            -122.027059,
            37.319571,
            66.25
          ],
          [
            -122.026282,
            37.319977,
            65.25
          ],
          [
            -122.024315,
            37.320067,
            63.0
          ],
          [
            -122.024028,
            37.320471,
            63.5
          ]
        ]
      }
    }
  ]
}
